ONEWEB-0018             
1 45434U 20020L   25265.49253057 -.00000397  00000+0 -11572-2 0  9997
2 45434  87.8787  74.3853 0001616  90.3991 269.7322 13.11414663267547
ONEWEB-0083             
1 45435U 20020M   25265.55952140 -.00000049  00000+0 -17406-3 0  9991
2 45435  87.8788  74.3614 0001593  92.9315 267.1995 13.11416848267596
ONEWEB-0095             
1 45436U 20020N   25265.47403475  .00000346  00000+0  94161-3 0  9996
2 45436  87.8779  74.3967 0002412  94.2925 265.8479 13.11414661267583
ONEWEB-0092             
1 45437U 20020P   25265.52221202  .00000171  00000+0  44794-3 0  9992
2 45437  87.8790  74.3796 0001914  89.7095 270.4253 13.11418588267708
ONEWEB-0085             
1 45438U 20020Q   25265.48236887 -.00000008  00000+0 -59207-4 0  9990
2 45438  87.8780  74.4009 0001661  90.7356 269.3962 13.11416039267586
ONEWEB-0096             
1 45439U 20020R   25265.48405492 -.00000017  00000+0 -82759-4 0  9999
2 45439  87.8798  74.3711 0001514  86.2674 273.8627 13.11414336267570
ONEWEB-0037             
1 45440U 20020S   25265.54086756  .00000547  00000+0  15083-2 0  9996
2 45440  87.8800  74.3254 0001753  89.5629 270.5699 13.11416787267619
ONEWEB-0042             
1 45441U 20020T   25265.55004108  .00000387  00000+0  10558-2 0  9993
2 45441  87.8786  74.3627 0001729  87.5469 272.5857 13.11414636267585
